OBJECT_NAME,OBJECT_ID,EPOCH,MEAN_MOTION,ECCENTRICITY,INCLINATION,RA_OF_ASC_NODE,ARG_OF_PERICENTER,MEAN_ANOMALY,EPHEMERIS_TYPE,CLASSIFICATION_TYPE,NORAD_CAT_ID,ELEMENT_SET_NO,REV_AT_EPOCH,BSTAR,MEAN_MOTION_DOT,MEAN_MOTION_DDOT
STARLINK-35448,2025-262K,2026-06-13T03:39:20.860992,15.27576437,.00005825,43.0085,117.2703,124.1030,235.9877,0,U,66465,999,3350,.98466428E-3,.26929E-3,0
STARLINK-35388,2025-262L,2026-06-13T20:00:01.999008,15.27522322,.0001367,43.0027,112.9806,270.5299,63.0841,0,U,66466,999,574,.25653E-2,.70884E-3,0
STARLINK-35682,2025-262M,2026-06-13T13:28:18.151680,15.27584763,.0001582,42.9991,115.1808,255.0068,105.0608,0,U,66467,999,3356,.56105E-3,.15211E-3,0
STARLINK-35331,2025-262N,2026-06-13T13:17:12.037056,15.27603235,.0002293,42.9937,115.1140,275.9034,84.1556,0,U,66468,999,3356,.10066E-2,.27563E-3,0
STARLINK-35451,2025-262P,2026-06-13T04:12:24.504768,15.27597585,.00006285,42.9963,116.5768,259.9246,100.1535,0,U,66469,999,3351,.58734074E-3,.15944E-3,0
STARLINK-35655,2025-262Q,2026-06-12T03:54:01.181952,15.27599027,.00013722,43.0028,122.7370,276.9963,83.0732,0,U,66470,999,3335,.97117871E-3,.26574E-3,0
STARLINK-35569,2025-262R,2026-06-13T14:03:12.212928,15.27616084,.0006317,43.0050,114.4920,267.4565,92.5563,0,U,66471,999,3357,.65445E-3,.17818E-3,0
STARLINK-35567,2025-262S,2026-06-13T13:44:43.085760,15.27600517,.0006,43.0202,114.3977,264.0312,95.9856,0,U,66472,999,3357,.8442E-3,.23064E-3,0
STARLINK-35568,2025-262T,2026-06-13T13:22:42.823776,15.27645521,.0004965,42.9824,115.1401,280.3858,79.6433,0,U,66473,999,3356,.10107E-2,.27719E-3,0
STARLINK-35620,2025-262U,2026-06-13T13:57:40.774752,15.27595845,.0004927,43.0060,114.4647,266.4055,93.6233,0,U,66474,999,3357,.72776E-3,.19832E-3,0
STARLINK-35538,2025-262V,2026-06-13T08:29:10.879296,15.27605397,.00011409,43.0007,116.1929,259.6793,100.3930,0,U,66475,999,3353,.71900099E-3,.19591E-3,0
STARLINK-35372,2025-262W,2026-06-13T03:22:39.243936,15.27613230,.00013059,43.0006,117.1720,270.1098,89.9604,0,U,66476,999,3339,.99933411E-3,.27367E-3,0
STARLINK-35354,2025-262X,2026-06-13T13:54:00.073728,15.27574812,.0002013,43.0078,114.4417,265.6781,94.3840,0,U,66477,999,3357,.87515E-3,.23895E-3,0
STARLINK-35283,2025-262Y,2026-06-13T13:07:56.040096,15.27594978,.0003878,42.9933,115.0600,274.9041,85.1368,0,U,66478,999,3356,.80796E-3,.22051E-3,0
STARLINK-35581,2025-262Z,2026-06-13T04:06:50.830560,15.27605695,.00011161,43.0002,116.5440,259.7213,100.3512,0,U,66479,999,3351,.549928E-3,.14913E-3,0
STARLINK-35670,2025-262AA,2026-06-13T03:30:03.653568,15.27597369,.00007361,42.9977,117.2071,254.8392,105.2378,0,U,66480,999,3350,.80104323E-3,.21858E-3,0
STARLINK-35698,2025-262AB,2026-06-13T13:35:29.052672,15.27606712,.0002592,42.9936,114.3467,260.3196,99.7363,0,U,66481,999,3357,.97848E-3,.26785E-3,0
STARLINK-35648,2025-262AC,2026-06-13T20:00:01.999008,15.27531510,.0001441,43.0029,113.0729,274.4135,16.8711,0,U,66482,999,585,.18152E-2,.49954E-3,0
STARLINK-35654,2025-262AD,2026-06-13T13:46:34.991040,15.27615430,.0005213,43.0084,114.4037,262.8495,97.1764,0,U,66483,999,3357,.58536E-3,.15902E-3,0
STARLINK-35371,2025-262AE,2026-06-13T13:26:26.160000,15.27622508,.000122,42.9964,115.1579,280.4972,79.5742,0,U,66484,999,3356,.86796E-3,.2373E-3,0
STARLINK-34774,2025-263A,2026-06-13T07:03:33.293376,15.27588813,.0001288,42.9987,170.4950,270.3790,89.6914,0,U,66485,999,3352,.31864E-3,.8519E-4,0
STARLINK-34844,2025-263B,2026-06-13T07:01:42.203712,15.27611132,.0000856,43.0075,170.4860,278.1745,81.9010,0,U,66486,999,3347,.54892E-3,.14888E-3,0
STARLINK-34733,2025-263C,2026-06-13T21:05:24.449280,15.27607934,.0002672,42.9985,167.1375,278.5034,81.5515,0,U,66487,999,3361,.59084E-3,.16046E-3,0
STARLINK-35515,2025-263D,2026-06-13T16:39:35.951040,15.27599249,.0000951,42.9976,168.3286,302.8809,57.1951,0,U,66488,999,3358,.82436E-3,.22505E-3,0
STARLINK-35696,2025-263E,2026-06-13T16:58:05.655360,15.27591231,.000216,42.9944,168.4355,264.1446,95.9159,0,U,66489,999,3358,.57645E-3,.1564E-3,0
STARLINK-35693,2025-263F,2026-06-13T07:07:15.470976,15.27598785,.0000407,42.9971,170.5099,265.0343,95.0463,0,U,66490,999,3352,.92573E-3,.25314E-3,0
STARLINK-35663,2025-263G,2026-06-13T17:11:03.655392,15.27568960,.0000971,43.0001,168.4924,329.5729,30.5067,0,U,66491,999,3358,.10251E-3,.2559E-4,0
STARLINK-35673,2025-263H,2026-06-13T16:54:23.501088,15.27601716,.0002392,42.9881,168.4118,278.2472,81.8108,0,U,66492,999,3358,.91865E-3,.25121E-3,0
STARLINK-35597,2025-263J,2026-06-13T17:29:34.408608,15.27581048,.0000653,43.0046,168.6007,307.6896,52.3897,0,U,66493,999,3358,.64193E-3,.17445E-3,0
STARLINK-35689,2025-263K,2026-06-13T17:40:39.373248,15.27626984,.0002932,43.0007,168.6586,268.8244,91.2272,0,U,66494,999,3358,.78192E-3,.21349E-3,0
STARLINK-35832,2025-263L,2026-06-13T16:48:52.310016,15.27593832,.0001963,42.9967,168.3793,278.3759,81.6870,0,U,66495,999,3358,.85413E-3,.23326E-3,0
STARLINK-35909,2025-263M,2026-06-13T17:22:08.990688,15.27590359,.0001616,43.0014,168.5550,275.1733,84.8934,0,U,66496,999,3358,.42005E-3,.11318E-3,0
STARLINK-35899,2025-263N,2026-06-13T07:09:06.257376,15.27615696,.000049,42.9995,170.5125,228.4247,131.6562,0,U,66497,999,3352,.71005E-3,.19349E-3,0
STARLINK-35907,2025-263P,2026-06-13T11:03:40.369824,15.27638457,.00019976,43.0033,170.0312,268.4734,91.5889,0,U,66498,999,3354,.75930879E-3,.20729E-3,0
STARLINK-35816,2025-263Q,2026-06-13T17:35:08.207232,15.27602612,.0002639,43.0048,168.6300,268.8147,91.2403,0,U,66499,999,3358,.50723E-3,.13732E-3,0
STARLINK-35894,2025-263R,2026-06-13T16:55:32.754144,15.27602024,.0002394,42.9956,171.8781,276.7876,83.2704,0,U,66500,999,3354,.76533E-3,.20873E-3,0
STARLINK-35897,2025-263S,2026-06-13T17:03:39.803904,15.27604459,.0003072,42.9877,168.4609,266.1394,93.9106,0,U,66501,999,3358,.75758E-3,.20661E-3,0
STARLINK-35922,2025-263T,2026-06-13T17:31:24.114144,15.27593772,.0001833,43.0020,168.6076,282.4055,77.6591,0,U,66502,999,3358,.58162E-3,.15784E-3,0
STARLINK-35917,2025-263U,2026-06-13T07:49:48.975456,15.27602618,.00024089,43.0003,170.7308,280.7159,79.3422,0,U,66503,999,3352,.87072401E-3,.23793E-3,0
STARLINK-35916,2025-263V,2026-06-13T20:00:01.999008,15.27568899,.000134,42.9989,171.4045,265.2078,348.2106,0,U,66504,999,585,.34014E-3,.9106E-4,0
STARLINK-34766,2025-263W,2026-06-13T11:34:54.827328,15.27605445,.00030922,43.0063,169.3243,278.9370,81.1132,0,U,66505,999,3355,.64531999E-3,.17553E-3,0
STARLINK-34765,2025-263X,2026-06-13T16:59:56.762304,15.27601253,.0002059,42.9941,168.4394,268.7325,91.3291,0,U,66506,999,3358,.44534E-3,.12021E-3,0
STARLINK-34767,2025-263Y,2026-06-13T17:25:51.378240,15.27588453,.0000196,42.9914,168.5796,281.5206,78.5623,0,U,66507,999,3358,.15226E-3,.3932E-4,0
STARLINK-35608,2025-263Z,2026-06-13T07:44:17.419776,15.27602874,.00010043,43.0013,170.6998,274.3439,85.7298,0,U,66508,999,3352,.82113514E-3,.22418E-3,0
STARLINK-35598,2025-263AA,2026-06-13T17:42:31.223232,15.27552144,.0001359,42.9893,168.6559,98.5949,261.5057,0,U,66509,999,3358,.61074E-3,.16568E-3,0
STARLINK-35600,2025-263AB,2026-06-13T17:36:57.015072,15.27629992,.0002748,43.0017,168.6339,275.4468,84.6070,0,U,66510,999,3358,.52592E-3,.14261E-3,0
STARLINK-35444,2025-263AC,2026-06-13T16:45:08.515008,15.27596867,.0002167,42.9956,168.3509,278.5240,81.5366,0,U,66511,999,3358,.77388E-3,.21106E-3,0
STARLINK-35366,2025-263AD,2026-06-13T17:05:29.638176,15.27577774,.0001727,42.9949,168.4607,263.5916,96.4739,0,U,66512,999,3358,.87011E-3,.23757E-3,0
STARLINK-35692,2025-263AE,2026-06-13T07:51:39.778272,15.27592832,.00031887,43.0014,170.7350,284.5204,75.5293,0,U,66513,999,3352,.57774764E-3,.15677E-3,0
STARLINK-35924,2025-265A,2026-06-13T12:39:43.665408,15.27588897,.00016619,43.0045,96.4383,259.0862,100.9802,0,U,66516,999,3177,.93707182E-3,.25621E-3,0
STARLINK-35937,2025-265B,2026-06-13T12:19:32.562048,15.27605755,.00023852,43.0091,97.1924,266.3331,93.7248,0,U,66517,999,3176,.96740475E-3,.26476E-3,0
STARLINK-35962,2025-265C,2026-06-12T12:34:15.002400,15.27593157,.0002661,42.9885,102.6581,270.8956,89.1591,0,U,66518,999,3161,.85862344E-3,.23452E-3,0
STARLINK-35931,2025-265D,2026-06-13T02:17:36.301056,15.27617855,.00010897,43.0054,99.2126,142.2699,217.8229,0,U,66519,999,3170,.74716916E-3,.20379E-3,0
STARLINK-35952,2025-265E,2026-06-12T12:23:09.116736,15.27599723,.00014947,42.9969,102.6030,271.3547,88.7134,0,U,66520,999,3161,.88260071E-3,.24119E-3,0
STARLINK-35915,2025-265F,2026-06-13T02:15:45.443808,15.27614173,.00012398,43.0090,99.2062,269.9878,90.0832,0,U,66521,999,3170,.67762022E-3,.1845E-3,0
STARLINK-35946,2025-265G,2026-06-12T12:30:32.673600,15.27606629,.00024087,42.9928,102.6361,280.8088,79.2492,0,U,66522,999,3161,.10726583E-2,.29398E-3,0
STARLINK-35969,2025-265H,2026-06-13T02:02:48.179040,15.27602464,.00026282,43.0021,99.1284,273.6429,86.4122,0,U,66523,999,3170,.88869647E-3,.24291E-3,0
STARLINK-35687,2025-265J,2026-06-13T12:15:51.294240,15.27599166,.00004211,43.0068,97.1759,236.2069,123.8743,0,U,66524,999,3176,.82272251E-3,.22459E-3,0
STARLINK-35975,2025-265K,2026-06-13T02:04:39.281664,15.27595060,.00025927,43.0011,99.1434,266.7910,93.2645,0,U,66525,999,3170,.96413164E-3,.26377E-3,0
STARLINK-35932,2025-265L,2026-06-13T02:00:56.882016,15.27608107,.00023202,43.0016,99.1208,269.1683,90.8903,0,U,66526,999,3170,.10760241E-2,.29493E-3,0
STARLINK-35935,2025-265M,2026-06-12T12:21:17.579520,15.27604460,.00024253,42.9974,102.5871,272.5560,87.5014,0,U,66527,999,3161,.10743073E-2,.29442E-3,0
STARLINK-35928,2025-265N,2026-06-13T12:50:47.543136,15.27609243,.0001942,43.0050,96.4838,267.9047,92.1582,0,U,66528,999,3177,.93072E-3,.25461E-3,0
STARLINK-35933,2025-265P,2026-06-13T12:10:18.963552,15.27578156,.00010147,42.9964,97.1414,88.6682,271.4286,0,U,66529,999,3176,.66794056E-3,.18162E-3,0
STARLINK-35961,2025-265Q,2026-06-12T02:52:39.865440,15.27611917,.00007305,43.0056,104.7932,145.2794,214.8106,0,U,66530,999,3155,.69309658E-3,.18878E-3,0
